[{"OBJECT_NAME":"ONEWEB-0582","OBJECT_ID":"2022-166H","EPOCH":"2026-04-16T15:58:38.577792","MEAN_MOTION":13.21826261,"ECCENTRICITY":0.0001944,"INCLINATION":87.9198,"RA_OF_ASC_NODE":256.2272,"ARG_OF_PERICENTER":112.8045,"MEAN_ANOMALY":247.3294,"EPHEMERIS_TYPE":0,"CLASSIFICATION_TYPE":"U","NORAD_CAT_ID":54649,"ELEMENT_SET_NO":999,"REV_AT_EPOCH":16339,"BSTAR":0.00020599,"MEAN_MOTION_DOT":9.8e-07,"MEAN_MOTION_DDOT":0.0},{"OBJECT_NAME":"ONEWEB-0583","OBJECT_ID":"2022-166J","EPOCH":"2026-04-16T16:15:37.683072","MEAN_MOTION":13.21826608,"ECCENTRICITY":0.000188,"INCLINATION":87.9198,"RA_OF_ASC_NODE":256.2481,"ARG_OF_PERICENTER":103.03,"MEAN_ANOMALY":257.1044,"EPHEMERIS_TYPE":0,"CLASSIFICATION_TYPE":"U","NORAD_CAT_ID":54650,"ELEMENT_SET_NO":999,"REV_AT_EPOCH":16340,"BSTAR":7.7957e-05,"MEAN_MOTION_DOT":4.5e-07,"MEAN_MOTION_DDOT":0.0},{"OBJECT_NAME":"ONEWEB-0584","OBJECT_ID":"2022-166K","EPOCH":"2026-04-16T16:44:41.584128","MEAN_MOTION":13.21828688,"ECCENTRICITY":0.0001767,"INCLINATION":87.9196,"RA_OF_ASC_NODE":256.2311,"ARG_OF_PERICENTER":105.1497,"MEAN_ANOMALY":254.9832,"EPHEMERIS_TYPE":0,"CLASSIFICATION_TYPE":"U","NORAD_CAT_ID":54651,"ELEMENT_SET_NO":999,"REV_AT_EPOCH":16339,"BSTAR":-5.5347000000000006e-06,"MEAN_MOTION_DOT":1.1e-07,"MEAN_MOTION_DDOT":0.0},{"OBJECT_NAME":"ONEWEB-0585","OBJECT_ID":"2022-166L","EPOCH":"2026-04-16T15:29:33.638208","MEAN_MOTION":13.2182529,"ECCENTRICITY":0.000185,"INCLINATION":87.9199,"RA_OF_ASC_NODE":256.226,"ARG_OF_PERICENTER":93.7788,"MEAN_ANOMALY":266.3558,"EPHEMERIS_TYPE":0,"CLASSIFICATION_TYPE":"U","NORAD_CAT_ID":54652,"ELEMENT_SET_NO":999,"REV_AT_EPOCH":16339,"BSTAR":7.157700000000001e-05,"MEAN_MOTION_DOT":4.3e-07,"MEAN_MOTION_DDOT":0.0},{"OBJECT_NAME":"ONEWEB-0586","OBJECT_ID":"2022-166M","EPOCH":"2026-04-16T15:48:56.532096","MEAN_MOTION":13.21823759,"ECCENTRICITY":0.0001896,"INCLINATION":87.92,"RA_OF_ASC_NODE":256.2495,"ARG_OF_PERICENTER":104.3588,"MEAN_ANOMALY":255.7756,"EPHEMERIS_TYPE":0,"CLASSIFICATION_TYPE":"U","NORAD_CAT_ID":54653,"ELEMENT_SET_NO":999,"REV_AT_EPOCH":16339,"BSTAR":-0.00011275,"MEAN_MOTION_DOT":-3.4e-07,"MEAN_MOTION_DDOT":0.0},{"OBJECT_NAME":"ONEWEB-0587","OBJECT_ID":"2022-166N","EPOCH":"2026-04-16T16:03:30.561408","MEAN_MOTION":13.21826286,"ECCENTRICITY":0.0001868,"INCLINATION":87.9209,"RA_OF_ASC_NODE":256.215,"ARG_OF_PERICENTER":87.3626,"MEAN_ANOMALY":272.7722,"EPHEMERIS_TYPE":0,"CLASSIFICATION_TYPE":"U","NORAD_CAT_ID":54654,"ELEMENT_SET_NO":999,"REV_AT_EPOCH":16355,"BSTAR":0.00013947999999999999,"MEAN_MOTION_DOT":7.1e-07,"MEAN_MOTION_DDOT":0.0},{"OBJECT_NAME":"ONEWEB-0589","OBJECT_ID":"2022-166P","EPOCH":"2026-04-16T15:44:05.701056","MEAN_MOTION":13.2182522,"ECCENTRICITY":0.0002014,"INCLINATION":87.9197,"RA_OF_ASC_NODE":256.2378,"ARG_OF_PERICENTER":125.5208,"MEAN_ANOMALY":234.6114,"EPHEMERIS_TYPE":0,"CLASSIFICATION_TYPE":"U","NORAD_CAT_ID":54655,"ELEMENT_SET_NO":999,"REV_AT_EPOCH":16341,"BSTAR":-0.00043627,"MEAN_MOTION_DOT":-1.67e-06,"MEAN_MOTION_DDOT":0.0},{"OBJECT_NAME":"ONEWEB-0590","OBJECT_ID":"2022-166Q","EPOCH":"2026-04-16T19:58:16.545216","MEAN_MOTION":13.21826432,"ECCENTRICITY":0.0001361,"INCLINATION":87.9205,"RA_OF_ASC_NODE":256.1867,"ARG_OF_PERICENTER":101.2118,"MEAN_ANOMALY":258.9169,"EPHEMERIS_TYPE":0,"CLASSIFICATION_TYPE":"U","NORAD_CAT_ID":54656,"ELEMENT_SET_NO":999,"REV_AT_EPOCH":16342,"BSTAR":0.00011399,"MEAN_MOTION_DOT":6e-07,"MEAN_MOTION_DDOT":0.0},{"OBJECT_NAME":"ONEWEB-0591","OBJECT_ID":"2022-166R","EPOCH":"2026-04-16T16:37:25.676256","MEAN_MOTION":13.21826935,"ECCENTRICITY":0.0001748,"INCLINATION":87.9199,"RA_OF_ASC_NODE":256.234,"ARG_OF_PERICENTER":99.3342,"MEAN_ANOMALY":260.7989,"EPHEMERIS_TYPE":0,"CLASSIFICATION_TYPE":"U","NORAD_CAT_ID":54657,"ELEMENT_SET_NO":999,"REV_AT_EPOCH":16343,"BSTAR":-6.1598e-05,"MEAN_MOTION_DOT":-1.2e-07,"MEAN_MOTION_DDOT":0.0},{"OBJECT_NAME":"ONEWEB-0592","OBJECT_ID":"2022-166S","EPOCH":"2026-04-16T16:42:16.060608","MEAN_MOTION":13.21826745,"ECCENTRICITY":0.0001819,"INCLINATION":87.9208,"RA_OF_ASC_NODE":256.2064,"ARG_OF_PERICENTER":98.8605,"MEAN_ANOMALY":261.2735,"EPHEMERIS_TYPE":0,"CLASSIFICATION_TYPE":"U","NORAD_CAT_ID":54658,"ELEMENT_SET_NO":999,"REV_AT_EPOCH":16331,"BSTAR":-4.0363e-05,"MEAN_MOTION_DOT":-4e-08,"MEAN_MOTION_DDOT":0.0},{"OBJECT_NAME":"ONEWEB-0593","OBJECT_ID":"2022-166T","EPOCH":"2026-04-16T15:24:43.000704","MEAN_MOTION":13.21823941,"ECCENTRICITY":0.0001979,"INCLINATION":87.92,"RA_OF_ASC_NODE":256.2331,"ARG_OF_PERICENTER":102.2952,"MEAN_ANOMALY":257.8404,"EPHEMERIS_TYPE":0,"CLASSIFICATION_TYPE":"U","NORAD_CAT_ID":54659,"ELEMENT_SET_NO":999,"REV_AT_EPOCH":16341,"BSTAR":8.3505e-06,"MEAN_MOTION_DOT":1.6e-07,"MEAN_MOTION_DDOT":0.0},{"OBJECT_NAME":"ONEWEB-0594","OBJECT_ID":"2022-166U","EPOCH":"2026-04-16T15:53:47.070240","MEAN_MOTION":13.21824548,"ECCENTRICITY":0.0001841,"INCLINATION":87.9199,"RA_OF_ASC_NODE":256.2466,"ARG_OF_PERICENTER":95.8377,"MEAN_ANOMALY":264.2967,"EPHEMERIS_TYPE":0,"CLASSIFICATION_TYPE":"U","NORAD_CAT_ID":54660,"ELEMENT_SET_NO":999,"REV_AT_EPOCH":16343,"BSTAR":-0.00034241,"MEAN_MOTION_DOT":-1.28e-06,"MEAN_MOTION_DDOT":0.0},{"OBJECT_NAME":"ONEWEB-0595","OBJECT_ID":"2022-166V","EPOCH":"2026-04-16T15:19:52.498848","MEAN_MOTION":13.21823875,"ECCENTRICITY":0.0001752,"INCLINATION":87.9207,"RA_OF_ASC_NODE":256.2268,"ARG_OF_PERICENTER":92.9473,"MEAN_ANOMALY":267.1862,"EPHEMERIS_TYPE":0,"CLASSIFICATION_TYPE":"U","NORAD_CAT_ID":54661,"ELEMENT_SET_NO":999,"REV_AT_EPOCH":16340,"BSTAR":-6.7294e-06,"MEAN_MOTION_DOT":1e-07,"MEAN_MOTION_DDOT":0.0},{"OBJECT_NAME":"ONEWEB-0596","OBJECT_ID":"2022-166W","EPOCH":"2026-04-16T16:32:35.009376","MEAN_MOTION":13.21826506,"ECCENTRICITY":0.0001775,"INCLINATION":87.92,"RA_OF_ASC_NODE":256.2323,"ARG_OF_PERICENTER":96.0962,"MEAN_ANOMALY":264.0374,"EPHEMERIS_TYPE":0,"CLASSIFICATION_TYPE":"U","NORAD_CAT_ID":54662,"ELEMENT_SET_NO":999,"REV_AT_EPOCH":16341,"BSTAR":-8.8335e-05,"MEAN_MOTION_DOT":-2.3e-07,"MEAN_MOTION_DDOT":0.0},{"OBJECT_NAME":"ONEWEB-0597","OBJECT_ID":"2022-166X","EPOCH":"2026-04-16T16:05:56.293152","MEAN_MOTION":13.21826253,"ECCENTRICITY":0.0001896,"INCLINATION":87.9197,"RA_OF_ASC_NODE":256.24,"ARG_OF_PERICENTER":102.7356,"MEAN_ANOMALY":257.399,"EPHEMERIS_TYPE":0,"CLASSIFICATION_TYPE":"U","NORAD_CAT_ID":54663,"ELEMENT_SET_NO":999,"REV_AT_EPOCH":16341,"BSTAR":3.512e-05,"MEAN_MOTION_DOT":2.8e-07,"MEAN_MOTION_DDOT":0.0},{"OBJECT_NAME":"ONEWEB-0600","OBJECT_ID":"2022-166Y","EPOCH":"2026-04-16T15:39:15.197472","MEAN_MOTION":13.21823811,"ECCENTRICITY":0.0002089,"INCLINATION":87.92,"RA_OF_ASC_NODE":256.235,"ARG_OF_PERICENTER":99.8699,"MEAN_ANOMALY":260.2671,"EPHEMERIS_TYPE":0,"CLASSIFICATION_TYPE":"U","NORAD_CAT_ID":54664,"ELEMENT_SET_NO":999,"REV_AT_EPOCH":16338,"BSTAR":1.5082000000000002e-05,"MEAN_MOTION_DOT":1.9e-07,"MEAN_MOTION_DDOT":0.0}]