ONEWEB-0582             
1 54649U 22166H   26106.66572428  .00000098  00000+0  20599-3 0  9994
2 54649  87.9198 256.2272 0001944 112.8045 247.3294 13.21826261163392
ONEWEB-0583             
1 54650U 22166J   26106.67751948  .00000045  00000+0  77957-4 0  9996
2 54650  87.9198 256.2481 0001880 103.0300 257.1044 13.21826608163400
ONEWEB-0584             
1 54651U 22166K   26106.69770352  .00000011  00000+0 -55347-5 0  9993
2 54651  87.9196 256.2311 0001767 105.1497 254.9832 13.21828688163393
ONEWEB-0585             
1 54652U 22166L   26106.64552822  .00000043  00000+0  71577-4 0  9995
2 54652  87.9199 256.2260 0001850  93.7788 266.3558 13.21825290163396
ONEWEB-0586             
1 54653U 22166M   26106.65898764 -.00000034  00000+0 -11275-3 0  9995
2 54653  87.9200 256.2495 0001896 104.3588 255.7756 13.21823759163397
ONEWEB-0587             
1 54654U 22166N   26106.66910372  .00000071  00000+0  13948-3 0  9995
2 54654  87.9209 256.2150 0001868  87.3626 272.7722 13.21826286163555
ONEWEB-0589             
1 54655U 22166P   26106.65562154 -.00000167  00000+0 -43627-3 0  9991
2 54655  87.9197 256.2378 0002014 125.5208 234.6114 13.21825220163413
ONEWEB-0590             
1 54656U 22166Q   26106.83213594  .00000060  00000+0  11399-3 0  9994
2 54656  87.9205 256.1867 0001361 101.2118 258.9169 13.21826432163427
ONEWEB-0591             
1 54657U 22166R   26106.69265829 -.00000012  00000+0 -61598-4 0  9993
2 54657  87.9199 256.2340 0001748  99.3342 260.7989 13.21826935163432
ONEWEB-0592             
1 54658U 22166S   26106.69601922 -.00000004  00000+0 -40363-4 0  9990
2 54658  87.9208 256.2064 0001819  98.8605 261.2735 13.21826745163313
ONEWEB-0593             
1 54659U 22166T   26106.64216436  .00000016  00000+0  83505-5 0  9995
2 54659  87.9200 256.2331 0001979 102.2952 257.8404 13.21823941163415
ONEWEB-0594             
1 54660U 22166U   26106.66235035 -.00000128  00000+0 -34241-3 0  9992
2 54660  87.9199 256.2466 0001841  95.8377 264.2967 13.21824548163431
ONEWEB-0595             
1 54661U 22166V   26106.63880207  .00000010  00000+0 -67294-5 0  9992
2 54661  87.9207 256.2268 0001752  92.9473 267.1862 13.21823875163403
ONEWEB-0596             
1 54662U 22166W   26106.68929409 -.00000023  00000+0 -88335-4 0  9999
2 54662  87.9200 256.2323 0001775  96.0962 264.0374 13.21826506163411
ONEWEB-0597             
1 54663U 22166X   26106.67079043  .00000028  00000+0  35120-4 0  9996
2 54663  87.9197 256.2400 0001896 102.7356 257.3990 13.21826253163417
ONEWEB-0600             
1 54664U 22166Y   26106.65225923  .00000019  00000+0  15082-4 0  9990
2 54664  87.9200 256.2350 0002089  99.8699 260.2671 13.21823811163380
